[
  {
    "OBJECT_NAME": "STARLINK-33559",
    "OBJECT_ID": "24220V",
    "EPOCH": "2025-11-10T13:52:36.026400",
    "MEAN_MOTION": 15.27621368,
    "ECCENTRICITY": 0.0001484,
    "INCLINATION": 42.9992,
    "RA_OF_ASC_NODE": 158.3014,
    "ARG_OF_PERICENTER": 241.7399,
    "MEAN_ANOMALY": 118.3303,
    "EPHEMERIS_TYPE": 0,
    "CLASSIFICATION_TYPE": "U",
    "NORAD_CAT_ID": 62107,
    "ELEMENT_SET_NO": 999,
    "REV_AT_EPOCH": 5497,
    "BSTAR": 0.0013582,
    "MEAN_MOTION_DOT": 0.00037351,
    "MEAN_MOTION_DDOT": 0.0,
    "TLE_LINE1": "1 62107U 24220V   25314.57819475  .00037351  00000+0  13582-2 0  9996",
    "TLE_LINE2": "2 62107  42.9992 158.3014 0001484 241.7399 118.3303 15.27621368 54972",
    "COMMENT": "Grouped by shell and plane from TLE"
  },
  {
    "OBJECT_NAME": "STARLINK-33553",
    "OBJECT_ID": "24220W",
    "EPOCH": "2025-11-10T23:06:24.838272",
    "MEAN_MOTION": 15.27625078,
    "ECCENTRICITY": 0.0002419,
    "INCLINATION": 43.0019,
    "RA_OF_ASC_NODE": 156.0345,
    "ARG_OF_PERICENTER": 268.6627,
    "MEAN_ANOMALY": 91.3948,
    "EPHEMERIS_TYPE": 0,
    "CLASSIFICATION_TYPE": "U",
    "NORAD_CAT_ID": 62108,
    "ELEMENT_SET_NO": 999,
    "REV_AT_EPOCH": 5503,
    "BSTAR": 0.0018287000000000002,
    "MEAN_MOTION_DOT": 0.00050477,
    "MEAN_MOTION_DDOT": 0.0,
    "TLE_LINE1": "1 62108U 24220W   25314.96278748  .00050477  00000+0  18287-2 0  9993",
    "TLE_LINE2": "2 62108  43.0019 156.0345 0002419 268.6627  91.3948 15.27625078 55033",
    "COMMENT": "Grouped by shell and plane from TLE"
  },
  {
    "OBJECT_NAME": "STARLINK-33556",
    "OBJECT_ID": "24220X",
    "EPOCH": "2025-11-10T22:46:03.337536",
    "MEAN_MOTION": 15.2762133,
    "ECCENTRICITY": 0.0002094,
    "INCLINATION": 43.0031,
    "RA_OF_ASC_NODE": 155.9337,
    "ARG_OF_PERICENTER": 271.5322,
    "MEAN_ANOMALY": 88.5289,
    "EPHEMERIS_TYPE": 0,
    "CLASSIFICATION_TYPE": "U",
    "NORAD_CAT_ID": 62109,
    "ELEMENT_SET_NO": 999,
    "REV_AT_EPOCH": 5505,
    "BSTAR": 0.0014054,
    "MEAN_MOTION_DOT": 0.00038663,
    "MEAN_MOTION_DDOT": 0.0,
    "TLE_LINE1": "1 62109U 24220X   25314.94864974  .00038663  00000+0  14054-2 0  9995",
    "TLE_LINE2": "2 62109  43.0031 155.9337 0002094 271.5322  88.5289 15.27621330 55056",
    "COMMENT": "Grouped by shell and plane from TLE"
  },
  {
    "OBJECT_NAME": "STARLINK-33551",
    "OBJECT_ID": "24220Y",
    "EPOCH": "2025-11-10T20:03:39.144672",
    "MEAN_MOTION": 15.27617417,
    "ECCENTRICITY": 6.91e-05,
    "INCLINATION": 42.9978,
    "RA_OF_ASC_NODE": 156.7969,
    "ARG_OF_PERICENTER": 258.5242,
    "MEAN_ANOMALY": 101.5532,
    "EPHEMERIS_TYPE": 0,
    "CLASSIFICATION_TYPE": "U",
    "NORAD_CAT_ID": 62110,
    "ELEMENT_SET_NO": 999,
    "REV_AT_EPOCH": 5501,
    "BSTAR": 0.0010786,
    "MEAN_MOTION_DOT": 0.00029571,
    "MEAN_MOTION_DDOT": 0.0,
    "TLE_LINE1": "1 62110U 24220Y   25314.83586973  .00029571  00000+0  10786-2 0  9991",
    "TLE_LINE2": "2 62110  42.9978 156.7969 0000691 258.5242 101.5532 15.27617417 55017",
    "COMMENT": "Grouped by shell and plane from TLE"
  },
  {
    "OBJECT_NAME": "STARLINK-33548",
    "OBJECT_ID": "24237P",
    "EPOCH": "2025-11-11T05:59:56.878368",
    "MEAN_MOTION": 15.27612787,
    "ECCENTRICITY": 7.93e-05,
    "INCLINATION": 42.9989,
    "RA_OF_ASC_NODE": 154.3829,
    "ARG_OF_PERICENTER": 272.6852,
    "MEAN_ANOMALY": 87.3909,
    "EPHEMERIS_TYPE": 0,
    "CLASSIFICATION_TYPE": "U",
    "NORAD_CAT_ID": 62280,
    "ELEMENT_SET_NO": 999,
    "REV_AT_EPOCH": 5320,
    "BSTAR": 0.0009352399999999999,
    "MEAN_MOTION_DOT": 0.00025589,
    "MEAN_MOTION_DDOT": 0.0,
    "TLE_LINE1": "1 62280U 24237P   25315.24996387  .00025589  00000+0  93524-3 0  9994",
    "TLE_LINE2": "2 62280  42.9989 154.3829 0000793 272.6852  87.3909 15.27612787 53206",
    "COMMENT": "Grouped by shell and plane from TLE"
  },
  {
    "OBJECT_NAME": "STARLINK-33547",
    "OBJECT_ID": "24237S",
    "EPOCH": "2025-11-11T05:54:24.430176",
    "MEAN_MOTION": 15.27620588,
    "ECCENTRICITY": 9.79e-05,
    "INCLINATION": 42.9973,
    "RA_OF_ASC_NODE": 154.3516,
    "ARG_OF_PERICENTER": 266.2664,
    "MEAN_ANOMALY": 93.8076,
    "EPHEMERIS_TYPE": 0,
    "CLASSIFICATION_TYPE": "U",
    "NORAD_CAT_ID": 62283,
    "ELEMENT_SET_NO": 999,
    "REV_AT_EPOCH": 5320,
    "BSTAR": 0.0012109,
    "MEAN_MOTION_DOT": 0.0003325,
    "MEAN_MOTION_DDOT": 0.0,
    "TLE_LINE1": "1 62283U 24237S   25315.24611609  .00033250  00000+0  12109-2 0  9991",
    "TLE_LINE2": "2 62283  42.9973 154.3516 0000979 266.2664  93.8076 15.27620588 53206",
    "COMMENT": "Grouped by shell and plane from TLE"
  },
  {
    "OBJECT_NAME": "STARLINK-33565",
    "OBJECT_ID": "24237X",
    "EPOCH": "2025-11-11T06:46:01.398432",
    "MEAN_MOTION": 15.27635785,
    "ECCENTRICITY": 5.85e-05,
    "INCLINATION": 43.0027,
    "RA_OF_ASC_NODE": 153.7666,
    "ARG_OF_PERICENTER": 13.1077,
    "MEAN_ANOMALY": 346.979,
    "EPHEMERIS_TYPE": 0,
    "CLASSIFICATION_TYPE": "U",
    "NORAD_CAT_ID": 62288,
    "ELEMENT_SET_NO": 999,
    "REV_AT_EPOCH": 5321,
    "BSTAR": 0.0017480000000000002,
    "MEAN_MOTION_DOT": 0.00048236,
    "MEAN_MOTION_DDOT": 0.0,
    "TLE_LINE1": "1 62288U 24237X   25315.28196063  .00048236  00000+0  17480-2 0  9999",
    "TLE_LINE2": "2 62288  43.0027 153.7666 0000585  13.1077 346.9790 15.27635785 53213",
    "COMMENT": "Grouped by shell and plane from TLE"
  },
  {
    "OBJECT_NAME": "STARLINK-33596",
    "OBJECT_ID": "25015A",
    "EPOCH": "2025-11-10T20:36:30.026304",
    "MEAN_MOTION": 15.30204883,
    "ECCENTRICITY": 0.0001162,
    "INCLINATION": 53.1576,
    "RA_OF_ASC_NODE": 154.6946,
    "ARG_OF_PERICENTER": 84.0407,
    "MEAN_ANOMALY": 276.0727,
    "EPHEMERIS_TYPE": 0,
    "CLASSIFICATION_TYPE": "U",
    "NORAD_CAT_ID": 62758,
    "ELEMENT_SET_NO": 999,
    "REV_AT_EPOCH": 4621,
    "BSTAR": 0.0013544999999999998,
    "MEAN_MOTION_DOT": 0.00039979,
    "MEAN_MOTION_DDOT": 0.0,
    "TLE_LINE1": "1 62758U 25015A   25314.85868086  .00039979  00000+0  13545-2 0  9991",
    "TLE_LINE2": "2 62758  53.1576 154.6946 0001162  84.0407 276.0727 15.30204883 46213",
    "COMMENT": "Grouped by shell and plane from TLE"
  },
  {
    "OBJECT_NAME": "STARLINK-33589",
    "OBJECT_ID": "25015B",
    "EPOCH": "2025-11-11T05:57:46.944864",
    "MEAN_MOTION": 15.30202442,
    "ECCENTRICITY": 0.000239,
    "INCLINATION": 53.1562,
    "RA_OF_ASC_NODE": 152.8631,
    "ARG_OF_PERICENTER": 86.149,
    "MEAN_ANOMALY": 273.9784,
    "EPHEMERIS_TYPE": 0,
    "CLASSIFICATION_TYPE": "U",
    "NORAD_CAT_ID": 62759,
    "ELEMENT_SET_NO": 999,
    "REV_AT_EPOCH": 4558,
    "BSTAR": 0.0019379,
    "MEAN_MOTION_DOT": 0.00057487,
    "MEAN_MOTION_DDOT": 0.0,
    "TLE_LINE1": "1 62759U 25015B   25315.24846001  .00057487  00000+0  19379-2 0  9994",
    "TLE_LINE2": "2 62759  53.1562 152.8631 0002390  86.1490 273.9784 15.30202442 45586",
    "COMMENT": "Grouped by shell and plane from TLE"
  },
  {
    "OBJECT_NAME": "STARLINK-33575",
    "OBJECT_ID": "25015C",
    "EPOCH": "2025-11-10T23:17:14.254368",
    "MEAN_MOTION": 15.30230956,
    "ECCENTRICITY": 7.11e-05,
    "INCLINATION": 53.1633,
    "RA_OF_ASC_NODE": 153.94,
    "ARG_OF_PERICENTER": 289.4663,
    "MEAN_ANOMALY": 70.6261,
    "EPHEMERIS_TYPE": 0,
    "CLASSIFICATION_TYPE": "U",
    "NORAD_CAT_ID": 62760,
    "ELEMENT_SET_NO": 999,
    "REV_AT_EPOCH": 4554,
    "BSTAR": 0.0010991,
    "MEAN_MOTION_DOT": 0.00032367,
    "MEAN_MOTION_DDOT": 0.0,
    "TLE_LINE1": "1 62760U 25015C   25314.97030387  .00032367  00000+0  10991-2 0  9998",
    "TLE_LINE2": "2 62760  53.1633 153.9400 0000711 289.4663  70.6261 15.30230956 45547",
    "COMMENT": "Grouped by shell and plane from TLE"
  },
  {
    "OBJECT_NAME": "STARLINK-33584",
    "OBJECT_ID": "25015D",
    "EPOCH": "2025-11-11T06:47:45.769632",
    "MEAN_MOTION": 15.30224743,
    "ECCENTRICITY": 5.45e-05,
    "INCLINATION": 53.1639,
    "RA_OF_ASC_NODE": 152.3693,
    "ARG_OF_PERICENTER": 296.2495,
    "MEAN_ANOMALY": 63.845,
    "EPHEMERIS_TYPE": 0,
    "CLASSIFICATION_TYPE": "U",
    "NORAD_CAT_ID": 62761,
    "ELEMENT_SET_NO": 999,
    "REV_AT_EPOCH": 4635,
    "BSTAR": 0.0015689,
    "MEAN_MOTION_DOT": 0.00046433,
    "MEAN_MOTION_DDOT": 0.0,
    "TLE_LINE1": "1 62761U 25015D   25315.28316863  .00046433  00000+0  15689-2 0  9998",
    "TLE_LINE2": "2 62761  53.1639 152.3693 0000545 296.2495  63.8450 15.30224743 46356",
    "COMMENT": "Grouped by shell and plane from TLE"
  },
  {
    "OBJECT_NAME": "STARLINK-33577",
    "OBJECT_ID": "25015E",
    "EPOCH": "2025-11-11T03:10:47.208576",
    "MEAN_MOTION": 15.30214364,
    "ECCENTRICITY": 0.0002368,
    "INCLINATION": 53.1457,
    "RA_OF_ASC_NODE": 152.8498,
    "ARG_OF_PERICENTER": 106.4038,
    "MEAN_ANOMALY": 253.7223,
    "EPHEMERIS_TYPE": 0,
    "CLASSIFICATION_TYPE": "U",
    "NORAD_CAT_ID": 62762,
    "ELEMENT_SET_NO": 999,
    "REV_AT_EPOCH": 4633,
    "BSTAR": 0.00016141,
    "MEAN_MOTION_DOT": 4.426e-05,
    "MEAN_MOTION_DDOT": 0.0,
    "TLE_LINE1": "1 62762U 25015E   25315.13249084  .00004426  00000+0  16141-3 0  9994",
    "TLE_LINE2": "2 62762  53.1457 152.8498 0002368 106.4038 253.7223 15.30214364 46337",
    "COMMENT": "Grouped by shell and plane from TLE"
  },
  {
    "OBJECT_NAME": "STARLINK-33597",
    "OBJECT_ID": "25015F",
    "EPOCH": "2025-11-10T23:49:09.756192",
    "MEAN_MOTION": 15.30226148,
    "ECCENTRICITY": 8.62e-05,
    "INCLINATION": 53.1584,
    "RA_OF_ASC_NODE": 154.107,
    "ARG_OF_PERICENTER": 103.1342,
    "MEAN_ANOMALY": 256.9755,
    "EPHEMERIS_TYPE": 0,
    "CLASSIFICATION_TYPE": "U",
    "NORAD_CAT_ID": 62763,
    "ELEMENT_SET_NO": 999,
    "REV_AT_EPOCH": 4630,
    "BSTAR": 0.0011326,
    "MEAN_MOTION_DOT": 0.00033362,
    "MEAN_MOTION_DDOT": 0.0,
    "TLE_LINE1": "1 62763U 25015F   25314.99247403  .00033362  00000+0  11326-2 0  9991",
    "TLE_LINE2": "2 62763  53.1584 154.1070 0000862 103.1342 256.9755 15.30226148 46304",
    "COMMENT": "Grouped by shell and plane from TLE"
  }
]